IRIDIUM 39              
1 25042U 97069D   25317.26072065  .00001524  00000+0  39237-3 0  9998
2 25042  86.3909 147.2755 0018201 162.0991 198.0858 14.49439151470552
IRIDIUM 38              
1 25043U 97069E   25317.13184321  .00000946  00000+0  30492-3 0  9995
2 25043  86.3987 170.5563 0002115  31.3263 328.8061 14.38274321467360
IRIDIUM 42              
1 25077U 97077A   25317.11236998  .00000727  00000+0  24132-3 0  9998
2 25077  86.3998 176.9121 0002149  64.4303 295.7116 14.36498413462577
IRIDIUM 44              
1 25078U 97077B   25317.08150885  .00000952  00000+0  29393-3 0  9999
2 25078  86.3971 158.4720 0000372 136.4915 223.6314 14.40395500465137
IRIDIUM 45              
1 25104U 97082A   25317.05115322  .00049141  00000+0  14553-2 0  9993
2 25104  86.3557 335.2869 0104688 130.4158 230.6284 15.29319788474736
IRIDIUM 24              
1 25105U 97082B   25317.20862205  .00001134  00000+0  33785-3 0  9999
2 25105  86.3942  17.0789 0009568 312.7011  47.3383 14.42287673464693
IRIDIUM 51              
1 25262U 98018A   25317.11346070  .00118309  00000+0  15543-2 0  9994
2 25262  86.3771 341.3796 0062221  35.8529 324.6884 15.55780970470035
IRIDIUM 57              
1 25273U 98019B   25317.29735427  .00000965  00000+0  32557-3 0  9997
2 25273  86.3940  82.7374 0001955  90.2962 269.8459 14.36017154446188
